ONEWEB-0210             
1 48787U 21045W   24168.62142610 -.00000058  00000+0 -18726-3 0  9990
2 48787  87.9039  44.5672 0002733  89.3998 270.7446 13.15548121148263
ONEWEB-0214             
1 48788U 21045X   24168.55488211  .00000018  00000+0  12763-4 0  9993
2 48788  87.9039  44.5693 0002394  93.1520 266.9885 13.15548366148225
ONEWEB-0221             
1 48789U 21045Y   24168.56121299  .00000077  00000+0  17096-3 0  9993
2 48789  87.9041  44.5858 0002122  78.0509 282.0859 13.15549767148316
ONEWEB-0213             
1 48790U 21045Z   24168.39801186  .00000003  00000+0 -26008-4 0  9990
2 48790  87.9037  44.6320 0002251  79.8041 280.3343 13.15548512148351
ONEWEB-0212             
1 48791U 21045AA  24168.60320655 -.00000104  00000+0 -30945-3 0  9999
2 48791  87.9043  44.5736 0001805  79.1623 280.9711 13.15549192148374
ONEWEB-0227             
1 48792U 21045AB  24168.60241375 -.00000115  00000+0 -34046-3 0  9999
2 48792  87.9042  44.5898 0002016  79.1615 280.9742 13.15549446148320
ONEWEB-0226             
1 48793U 21045AC  24168.59607677 -.00000082  00000+0 -25058-3 0  9995
2 48793  87.9042  44.5973 0002411  84.8712 275.2693 13.15549041148294
ONEWEB-0224             
1 48794U 21045AD  24168.55963659  .00000101  00000+0  23300-3 0  9995
2 48794  87.9044  44.6258 0002315  52.7391 307.3950 13.15548608149331
